[{"OBJECT_NAME":"STARLINK-3582","OBJECT_ID":"2022-022X","EPOCH":"2026-03-09T22:56:15.036576","MEAN_MOTION":15.17112073,"ECCENTRICITY":0.00019498,"INCLINATION":53.2143,"RA_OF_ASC_NODE":3.953,"ARG_OF_PERICENTER":143.0365,"MEAN_ANOMALY":217.0766,"EPHEMERIS_TYPE":0,"CLASSIFICATION_TYPE":"U","NORAD_CAT_ID":51873,"ELEMENT_SET_NO":999,"REV_AT_EPOCH":22321,"BSTAR":0.0018716326,"MEAN_MOTION_DOT":0.00037432,"MEAN_MOTION_DDOT":0},{"OBJECT_NAME":"HYDROGNSS-2","OBJECT_ID":"2025-276DB","EPOCH":"2026-03-09T23:16:13.603296","MEAN_MOTION":15.17394407,"ECCENTRICITY":0.00029502,"INCLINATION":97.4274,"RA_OF_ASC_NODE":144.1742,"ARG_OF_PERICENTER":240.4199,"MEAN_ANOMALY":119.6741,"EPHEMERIS_TYPE":0,"CLASSIFICATION_TYPE":"U","NORAD_CAT_ID":66763,"ELEMENT_SET_NO":999,"REV_AT_EPOCH":1535,"BSTAR":0.00027739627,"MEAN_MOTION_DOT":5.478e-5,"MEAN_MOTION_DDOT":0}]
